{
  "norad_id": 58389,
  "name": "STARLINK-30938",
  "history": [
    {
      "epoch": "2026-04-12T13:26:24.432864Z",
      "apogee_km": 476.0369890549364,
      "perigee_km": 474.46482186942376,
      "latitude_deg": -5.453409974622772e-07,
      "longitude_deg": 161.62370579869375,
      "height_km": 475.862179862496,
      "semi_major_axis_km": 6853.38790546218,
      "eccentricity": 0.0001147,
      "inclination_deg": 53.1613,
      "raan_deg": 203.9889,
      "arg_perigee_deg": 68.5693,
      "mean_anomaly_deg": 291.543,
      "mean_motion_rev_day": 15.30187998
    },
    {
      "epoch": "2026-04-14T12:28:00.312384Z",
      "apogee_km": 476.0625013920426,
      "perigee_km": 474.4556541476486,
      "latitude_deg": 2.3313628089601364e-05,
      "longitude_deg": 165.19371152255434,
      "height_km": 476.27320545674206,
      "semi_major_axis_km": 6853.396077769845,
      "eccentricity": 0.00011723,
      "inclination_deg": 53.1623,
      "raan_deg": 194.8897,
      "arg_perigee_deg": 98.2775,
      "mean_anomaly_deg": 261.8359,
      "mean_motion_rev_day": 15.30185261
    },
    {
      "epoch": "2026-04-15T11:58:47.954496Z",
      "apogee_km": 476.08041908936866,
      "perigee_km": 474.41079801827254,
      "latitude_deg": -1.1243150126802199e-05,
      "longitude_deg": 166.97812449849573,
      "height_km": 476.2537546662166,
      "semi_major_axis_km": 6853.38260855382,
      "eccentricity": 0.00012181,
      "inclination_deg": 53.1618,
      "raan_deg": 190.3383,
      "arg_perigee_deg": 97.5576,
      "mean_anomaly_deg": 262.5563,
      "mean_motion_rev_day": 15.30189772
    },
    {
      "epoch": "2026-04-16T14:37:42.262752Z",
      "apogee_km": 476.0882715338421,
      "perigee_km": 474.3762998862712,
      "latitude_deg": 1.145767567193831e-05,
      "longitude_deg": 121.00194748718887,
      "height_km": 476.13981245233043,
      "semi_major_axis_km": 6853.369285710056,
      "eccentricity": 0.0001249,
      "inclination_deg": 53.1616,
      "raan_deg": 185.1828,
      "arg_perigee_deg": 90.6195,
      "mean_anomaly_deg": 269.4949,
      "mean_motion_rev_day": 15.30194234
    },
    {
      "epoch": "2026-04-17T21:58:46.519680Z",
      "apogee_km": 476.02601493344173,
      "perigee_km": 474.4842758364157,
      "latitude_deg": -4.092270581678761e-05,
      "longitude_deg": 3.3780257475272637,
      "height_km": 476.12329476412623,
      "semi_major_axis_km": 6853.392145384928,
      "eccentricity": 0.00011248,
      "inclination_deg": 53.1606,
      "raan_deg": 179.1142,
      "arg_perigee_deg": 87.7555,
      "mean_anomaly_deg": 272.3574,
      "mean_motion_rev_day": 15.30186578
    },
    {
      "epoch": "2026-04-18T12:05:14.832960Z",
      "apogee_km": 475.9826430720559,
      "perigee_km": 474.47901417045614,
      "latitude_deg": 5.784374353287562e-05,
      "longitude_deg": 148.45013800469192,
      "height_km": 476.09346392573514,
      "semi_major_axis_km": 6853.367828621255,
      "eccentricity": 0.0001097,
      "inclination_deg": 53.1606,
      "raan_deg": 176.3836,
      "arg_perigee_deg": 87.2759,
      "mean_anomaly_deg": 272.8368,
      "mean_motion_rev_day": 15.30194722
    },
    {
      "epoch": "2026-04-19T13:10:06.797856Z",
      "apogee_km": 476.0095767688863,
      "perigee_km": 474.5319820516452,
      "latitude_deg": -1.9794759265717553e-05,
      "longitude_deg": 126.34881483592847,
      "height_km": 476.17373504413337,
      "semi_major_axis_km": 6853.407779410265,
      "eccentricity": 0.0001078,
      "inclination_deg": 53.1604,
      "raan_deg": 171.5289,
      "arg_perigee_deg": 90.3553,
      "mean_anomaly_deg": 269.7571,
      "mean_motion_rev_day": 15.30181342
    },
    {
      "epoch": "2026-04-20T09:32:49.555392Z",
      "apogee_km": 476.19003783720837,
      "perigee_km": 474.4321284038879,
      "latitude_deg": -4.886506665338616e-05,
      "longitude_deg": 175.89271827569638,
      "height_km": 476.18576034111794,
      "semi_major_axis_km": 6853.448083120548,
      "eccentricity": 0.00012825,
      "inclination_deg": 53.1596,
      "raan_deg": 167.5879,
      "arg_perigee_deg": 88.4788,
      "mean_anomaly_deg": 271.6359,
      "mean_motion_rev_day": 15.30167844
    }
  ]
}